NORAD_CAT_ID,OBJECT_NAME,OBJECT_TYPE,EPOCH,MEAN_MOTION,ECCENTRICITY,INCLINATION,RA_OF_ASC_NODE,ARG_OF_PERICENTER,MEAN_ANOMALY,BSTAR,MEAN_MOTION_DOT,MEAN_MOTION_DDOT,TLE_LINE0,TLE_LINE1,TLE_LINE2,SEMIMAJOR_AXIS,PERIOD,APOGEE,PERIGEE,DECAYED
53433.0,STARLINK-4549,PAYLOAD,2023-01-04 00:43:05,15.08836571,0.0001636999999999,53.217,274.5197,66.6058,293.5106,6.6064e-05,7.63e-06,0.0,0 STARLINK-4549,1 53433U 22097AX  23004.02992704  .00000763  00000-0  66064-4 0  9992,2 53433  53.2170 274.5197 0001637  66.6058 293.5106 15.08836571 23084,6917.891,95.438,540.888,538.623,0.0
53433.0,STARLINK-4549,PAYLOAD,2023-01-04 19:47:42,15.08853476,0.0001553,53.2166,270.9514,64.7452,295.3701,0.00027088,4.027e-05,0.0,0 STARLINK-4549,1 53433U 22097AX  23004.82479742  .00004027  00000-0  27088-3 0  9991,2 53433  53.2166 270.9514 0001553  64.7452 295.3701 15.08853476 23204,6917.839,95.437,540.779,538.63,0.0
53433.0,STARLINK-4549,PAYLOAD,2023-01-05 10:06:09,15.088652,0.0001583,53.2166,268.2745,61.5595,298.5557,0.00043015,6.569e-05,0.0,0 STARLINK-4549,1 53433U 22097AX  23005.42094847  .00006569  00000-0  43015-3 0  9998,2 53433  53.2166 268.2745 0001583  61.5595 298.5557 15.08865200 23758,6917.803000000001,95.436,540.763,538.573,0.0
53433.0,STARLINK-4549,PAYLOAD,2023-01-05 18:03:05,15.08864903,0.0001551,53.2167,266.7884,66.9839,293.1317,0.00032003,4.812e-05,0.0,0 STARLINK-4549,1 53433U 22097AX  23005.75214437  .00004812  00000-0  32003-3 0  9997,2 53433  53.2167 266.7884 0001551  66.9839 293.1317 15.08864903 23801,6917.804,95.436,540.742,538.596,0.0
53433.0,STARLINK-4549,PAYLOAD,2023-01-06 09:56:58,15.08822914,0.000201,53.2165,263.8148,65.7356,294.3845,-0.00032723,-5.489999999999999e-05,0.0,0 STARLINK-4549,1 53433U 22097AX  23006.41456368 -.00005490  00000-0 -32723-3 0  9996,2 53433  53.2165 263.8148 0002010  65.7356 294.3845 15.08822914 23447,6917.933000000001,95.439,541.188,538.4069999999998,0.0
53433.0,STARLINK-4549,PAYLOAD,2023-01-06 17:53:53,15.08820206,0.0001897,53.2166,262.3273,65.2473,294.8716,-0.00048825,-8.046e-05,0.0,0 STARLINK-4549,1 53433U 22097AX  23006.74576252 -.00008046  00000-0 -48825-3 0  9997,2 53433  53.2166 262.3273 0001897  65.2473 294.8716 15.08820206 23958,6917.941,95.439,541.118,538.494,0.0
53433.0,STARLINK-4549,PAYLOAD,2023-01-07 01:50:49,15.08819225,0.0001932,53.2154,260.8399,67.4019,292.7177,-0.00031536,-5.301e-05,0.0,0 STARLINK-4549,1 53433U 22097AX  23007.07696739 -.00005301  00000-0 -31536-3 0  9999,2 53433  53.2154 260.8399 0001932  67.4019 292.7177 15.08819225 24001,6917.944,95.439,541.145,538.472,0.0
53433.0,STARLINK-4549,PAYLOAD,2023-01-07 17:44:41,15.08828597,0.0001704,53.2155,257.8667,64.6301,295.4867,0.00018072,2.588e-05,0.0,0 STARLINK-4549,1 53433U 22097AX  23007.73937300  .00002588  00000-0  18072-3 0  9996,2 53433  53.2155 257.8667 0001704  64.6301 295.4867 15.08828597 23643,6917.915,95.438,540.9590000000002,538.601,0.0
53433.0,STARLINK-4549,PAYLOAD,2023-01-08 11:13:57,15.08832735,0.0001597,53.2154,254.5968,68.0728,292.0434,0.00046671,7.146e-05,0.0,0 STARLINK-4549,1 53433U 22097AX  23008.46802164  .00007146  00000-0  46671-3 0  9997,2 53433  53.2154 254.5968 0001597  68.0728 292.0434 15.08832735 24217,6917.903,95.438,540.872,538.663,0.0
53433.0,STARLINK-4549,PAYLOAD,2023-01-08 19:10:52,15.08852968,0.000159,53.2151,253.1101,67.4752,292.6408,0.00083941,0.00013101,0.0,0 STARLINK-4549,1 53433U 22097AX  23008.79921771  .00013101  00000-0  83941-3 0  9998,2 53433  53.2151 253.1101 0001590  67.4752 292.6408 15.08852968 23802,6917.840999999999,95.437,540.806,538.606,0.0
53433.0,STARLINK-4549,PAYLOAD,2023-01-08 22:21:38,15.08859087,0.000159,53.2149,252.5154,67.3703,292.7457,0.0010515999999999,0.00016497,0.0,0 STARLINK-4549,1 53433U 22097AX  23008.93169645  .00016497  00000-0  10516-2 0  9996,2 53433  53.2149 252.5154 0001590  67.3703 292.7457 15.08859087 24282,6917.821999999999,95.436,540.7869999999998,538.587,0.0
53433.0,STARLINK-4549,PAYLOAD,2023-01-09 11:04:43,15.08853109,0.0001710999999999,53.2147,250.1369,64.101,296.0159,0.00046657,7.148e-05,0.0,0 STARLINK-4549,1 53433U 22097AX  23009.46161514  .00007148  00000-0  46657-3 0  9991,2 53433  53.2147 250.1369 0001711  64.1010 296.0159 15.08853109 24367,6917.84,95.437,540.889,538.5219999999998,0.0
53433.0,STARLINK-4549,PAYLOAD,2023-01-09 15:50:52,15.08852945,0.0001738,53.2145,249.2448,62.3378,297.779,0.00029768,4.454e-05,0.0,0 STARLINK-4549,1 53433U 22097AX  23009.66033349  .00004454  00000-0  29768-3 0  9998,2 53433  53.2145 249.2448 0001738  62.3378 297.7790 15.08852945 23936,6917.840999999999,95.437,540.908,538.504,0.0
53433.0,STARLINK-4549,PAYLOAD,2023-01-09 22:12:25,15.08848545,0.000182,53.2148,248.0551,60.1395,299.9778,0.00016293,2.306e-05,0.0,0 STARLINK-4549,1 53433U 22097AX  23009.92529430  .00002306  00000-0  16293-3 0  9991,2 53433  53.2148 248.0551 0001820  60.1395 299.9778 15.08848545 24435,6917.854,95.437,540.9780000000002,538.46,0.0
53433.0,STARLINK-4549,PAYLOAD,2023-01-10 09:20:07,15.08840309,0.0001827,53.2152,245.9732,61.8617,298.256,0.0002545,3.765e-05,0.0,0 STARLINK-4549,1 53433U 22097AX  23010.38897763  .00003765  00000-0  25450-3 0  9995,2 53433  53.2152 245.9732 0001827  61.8617 298.2560 15.08840309 24047,6917.879,95.438,541.008,538.481,0.0
53433.0,STARLINK-4549,PAYLOAD,2023-01-11 10:46:16,15.08849664,0.0001559,53.2143,241.2133,65.7589,294.3566,0.00014392,2.004e-05,0.0,0 STARLINK-4549,1 53433U 22097AX  23011.44880591  .00002004  00000-0  14392-3 0  9992,2 53433  53.2143 241.2133 0001559  65.7589 294.3566 15.08849664 24208,6917.851,95.437,540.794,538.637,0.0
53433.0,STARLINK-4549,PAYLOAD,2023-01-11 21:53:59,15.08841011,0.0001526,53.2146,239.1324,63.3889,296.726,-6.3222e-05,-1.294e-05,0.0,0 STARLINK-4549,1 53433U 22097AX  23011.91248851 -.00001294  00000-0 -63222-4 0  9990,2 53433  53.2146 239.1324 0001526  63.3889 296.7260 15.08841011 24733,6917.877,95.437,540.798,538.687,0.0
53433.0,STARLINK-4549,PAYLOAD,2023-01-12 16:58:37,15.08828995,0.0001341999999999,53.2163,235.5658,59.3198,300.7926,-9.8042e-05,-1.847e-05,0.0,0 STARLINK-4549,1 53433U 22097AX  23012.70738337 -.00001847  00000-0 -98042-4 0  9993,2 53433  53.2163 235.5658 0001342  59.3198 300.7926 15.08828995 24399,6917.914000000002,95.438,540.707,538.851,0.0
53433.0,STARLINK-4549,PAYLOAD,2023-01-12 21:44:47,15.08824387,0.0001406,53.2157,234.6728,68.0907,292.0234,1.817e-05,1e-08,0.0,0 STARLINK-4549,1 53433U 22097AX  23012.90610207  .00000001  00000-0  18170-4 0  9993,2 53433  53.2157 234.6728 0001406  68.0907 292.0234 15.08824387 24886,6917.928000000001,95.439,540.766,538.82,0.0
53433.0,STARLINK-4549,PAYLOAD,2023-01-13 07:17:05,15.08829214,0.0001406,53.2156,232.8884,69.0157,291.0985,5.5455e-05,5.95e-06,0.0,0 STARLINK-4549,1 53433U 22097AX  23013.30354149  .00000595  00000-0  55455-4 0  9993,2 53433  53.2156 232.8884 0001406  69.0157 291.0985 15.08829214 24488,6917.9130000000005,95.438,540.751,538.806,0.0
53433.0,STARLINK-4549,PAYLOAD,2023-01-13 21:35:33,15.08838002,0.0001381,53.2157,230.2122,69.7287,290.3853,0.00012351,1.678e-05,0.0,0 STARLINK-4549,1 53433U 22097AX  23013.89969799  .00001678  00000-0  12351-3 0  9990,2 53433  53.2157 230.2122 0001381  69.7287 290.3853 15.08838002 25032,6917.886,95.438,540.707,538.7959999999999,0.0
53433.0,STARLINK-4549,PAYLOAD,2023-01-14 07:07:52,15.08852398,0.0001336,53.2157,228.428,73.1908,286.923,-0.00012739,-2.315e-05,0.0,0 STARLINK-4549,1 53433U 22097AX  23014.29713549 -.00002315  00000-0 -12739-3 0  9996,2 53433  53.2157 228.4280 0001336  73.1908 286.9230 15.08852398 24634,6917.842,95.437,540.632,538.783,0.0
53433.0,STARLINK-4549,PAYLOAD,2023-01-14 13:29:26,15.08829042,0.0001363,53.2154,227.2388,73.3649,286.7493,0.00014636,2.041e-05,0.0,0 STARLINK-4549,1 53433U 22097AX  23014.56210715  .00002041  00000-0  14636-3 0  9995,2 53433  53.2154 227.2388 0001363  73.3649 286.7493 15.08829042 24674,6917.914000000001,95.438,540.722,538.836,0.0
53433.0,STARLINK-4549,PAYLOAD,2023-01-15 13:20:13,15.08839688,0.0001343,53.2148,222.7788,79.6055,280.5088,7.9229e-05,9.73e-06,0.0,0 STARLINK-4549,1 53433U 22097AX  23015.55570652  .00000973  00000-0  79229-4 0  9996,2 53433  53.2148 222.7788 0001343  79.6055 280.5088 15.08839688 25286,6917.880999999999,95.438,540.675,538.817,0.0
53433.0,STARLINK-4549,PAYLOAD,2023-01-15 21:17:08,15.08846173,0.0001303,53.2154,221.2912,76.7159,283.3978,9.6783e-05,1.253e-05,0.0,0 STARLINK-4549,1 53433U 22097AX  23015.88690276  .00001253  00000-0  96783-4 0  9993,2 53433  53.2154 221.2912 0001303  76.7159 283.3978 15.08846173 24875,6917.861999999999,95.437,540.628,538.825,0.0
53433.0,STARLINK-4549,PAYLOAD,2023-01-16 13:11:00,15.08838496,0.0001476999999999,53.2162,218.3188,79.4572,280.6587,5.8762e-05,6.47e-06,0.0,0 STARLINK-4549,1 53433U 22097AX  23016.54930780  .00000647  00000-0  58762-4 0  9995,2 53433  53.2162 218.3188 0001477  79.4572 280.6587 15.08838496 24973,6917.885,95.438,540.7719999999999,538.7280000000001,0.0
53433.0,STARLINK-4549,PAYLOAD,2023-01-16 19:32:32,15.08836754,0.0001239,53.2151,217.1284,82.94200000000001,277.1713,6.9706e-05,8.22e-06,0.0,0 STARLINK-4549,1 53433U 22097AX  23016.81426872  .00000822  00000-0  69706-4 0  9992,2 53433  53.2151 217.1284 0001239  82.9420 277.1713 15.08836754 25475,6917.89,95.438,540.612,538.898,0.0
53433.0,STARLINK-4549,PAYLOAD,2023-01-17 13:01:47,15.08837762,0.0001269,53.2152,213.8574,82.3765,277.7371,6.11e-05,6.85e-06,0.0,0 STARLINK-4549,1 53433U 22097AX  23017.54290889  .00000685  00000-0  61100-4 0  9997,2 53433  53.2152 213.8574 0001269  82.3765 277.7371 15.08837762 25588,6917.887,95.438,540.63,538.874,0.0
53433.0,STARLINK-4549,PAYLOAD,2023-01-17 19:23:20,15.08834305,0.0001281999999999,53.2152,212.6676,82.8968,277.217,2.8142e-05,1.6e-06,0.0,0 STARLINK-4549,1 53433U 22097AX  23017.80787261  .00000160  00000-0  28142-4 0  9998,2 53433  53.2152 212.6676 0001282  82.8968 277.2170 15.08834305 25169,6917.898,95.438,540.65,538.876,0.0
